[{"OBJECT_NAME":"STARLINK-4621","OBJECT_ID":"2022-105AE","EPOCH":"2026-03-15T06:23:01.872096","MEAN_MOTION":15.01260215,"ECCENTRICITY":0.00030641,"INCLINATION":97.6008,"RA_OF_ASC_NODE":315.6684,"ARG_OF_PERICENTER":39.4618,"MEAN_ANOMALY":320.6829,"EPHEMERIS_TYPE":0,"CLASSIFICATION_TYPE":"U","NORAD_CAT_ID":53676,"ELEMENT_SET_NO":999,"REV_AT_EPOCH":19407,"BSTAR":3.4410523e-5,"MEAN_MOTION_DOT":3.84e-6,"MEAN_MOTION_DDOT":0},{"OBJECT_NAME":"SHERPA-LTC2","OBJECT_ID":"2022-107BG","EPOCH":"2026-03-15T05:33:06.341760","MEAN_MOTION":14.68572297,"ECCENTRICITY":0.03980063,"INCLINATION":53.2348,"RA_OF_ASC_NODE":257.7455,"ARG_OF_PERICENTER":323.7859,"MEAN_ANOMALY":33.6757,"EPHEMERIS_TYPE":0,"CLASSIFICATION_TYPE":"U","NORAD_CAT_ID":53754,"ELEMENT_SET_NO":999,"REV_AT_EPOCH":18873,"BSTAR":0.00019308096,"MEAN_MOTION_DOT":3.573e-5,"MEAN_MOTION_DDOT":0},{"OBJECT_NAME":"CENTISPACE-1 S3","OBJECT_ID":"2022-108A","EPOCH":"2026-03-15T06:59:31.482240","MEAN_MOTION":14.61137912,"ECCENTRICITY":0.00108458,"INCLINATION":53.5319,"RA_OF_ASC_NODE":83.4937,"ARG_OF_PERICENTER":94.4475,"MEAN_ANOMALY":265.7739,"EPHEMERIS_TYPE":0,"CLASSIFICATION_TYPE":"U","NORAD_CAT_ID":53757,"ELEMENT_SET_NO":999,"REV_AT_EPOCH":18780,"BSTAR":0.00011738638,"MEAN_MOTION_DOT":3.93e-6,"MEAN_MOTION_DDOT":0},{"OBJECT_NAME":"CENTISPACE-1 S4","OBJECT_ID":"2022-108B","EPOCH":"2026-03-15T07:38:42.906624","MEAN_MOTION":14.61788946,"ECCENTRICITY":0.00103141,"INCLINATION":53.5295,"RA_OF_ASC_NODE":81.3358,"ARG_OF_PERICENTER":83.3306,"MEAN_ANOMALY":276.8844,"EPHEMERIS_TYPE":0,"CLASSIFICATION_TYPE":"U","NORAD_CAT_ID":53758,"ELEMENT_SET_NO":999,"REV_AT_EPOCH":18783,"BSTAR":0.00014330751,"MEAN_MOTION_DOT":5.3e-6,"MEAN_MOTION_DDOT":0},{"OBJECT_NAME":"BLUEWALKER-3","OBJECT_ID":"2022-111AL","EPOCH":"2026-03-15T06:17:50.311104","MEAN_MOTION":15.37219772,"ECCENTRICITY":0.0004519,"INCLINATION":53.229,"RA_OF_ASC_NODE":114.5547,"ARG_OF_PERICENTER":246.4202,"MEAN_ANOMALY":113.6328,"EPHEMERIS_TYPE":0,"CLASSIFICATION_TYPE":"U","NORAD_CAT_ID":53807,"ELEMENT_SET_NO":999,"REV_AT_EPOCH":19575,"BSTAR":0.00017493854,"MEAN_MOTION_DOT":6.086e-5,"MEAN_MOTION_DDOT":0},{"OBJECT_NAME":"YUNHAI-1 03","OBJECT_ID":"2022-115A","EPOCH":"2026-03-15T06:05:41.051904","MEAN_MOTION":14.3264995,"ECCENTRICITY":0.00041815,"INCLINATION":98.5537,"RA_OF_ASC_NODE":73.6016,"ARG_OF_PERICENTER":338.6209,"MEAN_ANOMALY":21.48,"EPHEMERIS_TYPE":0,"CLASSIFICATION_TYPE":"U","NORAD_CAT_ID":53877,"ELEMENT_SET_NO":999,"REV_AT_EPOCH":18206,"BSTAR":0.00013844402,"MEAN_MOTION_DOT":3.33e-6,"MEAN_MOTION_DDOT":0},{"OBJECT_NAME":"CENTISPACE-1 S5","OBJECT_ID":"2022-126A","EPOCH":"2026-03-15T06:29:23.184672","MEAN_MOTION":14.62820264,"ECCENTRICITY":0.00112126,"INCLINATION":54.9982,"RA_OF_ASC_NODE":228.7303,"ARG_OF_PERICENTER":205.3231,"MEAN_ANOMALY":154.7214,"EPHEMERIS_TYPE":0,"CLASSIFICATION_TYPE":"U","NORAD_CAT_ID":54020,"ELEMENT_SET_NO":999,"REV_AT_EPOCH":18329,"BSTAR":0.00024708896,"MEAN_MOTION_DOT":1.083e-5,"MEAN_MOTION_DDOT":0},{"OBJECT_NAME":"CENTISPACE-1 S6","OBJECT_ID":"2022-126B","EPOCH":"2026-03-15T06:52:53.114304","MEAN_MOTION":14.62140794,"ECCENTRICITY":0.00129681,"INCLINATION":54.9984,"RA_OF_ASC_NODE":230.1066,"ARG_OF_PERICENTER":207.8444,"MEAN_ANOMALY":152.1857,"EPHEMERIS_TYPE":0,"CLASSIFICATION_TYPE":"U","NORAD_CAT_ID":54021,"ELEMENT_SET_NO":999,"REV_AT_EPOCH":18326,"BSTAR":0.00019446848,"MEAN_MOTION_DOT":7.98e-6,"MEAN_MOTION_DDOT":0},{"OBJECT_NAME":"OTB-3-GAZELLE","OBJECT_ID":"2022-127A","EPOCH":"2026-03-15T05:16:50.194560","MEAN_MOTION":14.42638082,"ECCENTRICITY":0.00142996,"INCLINATION":98.3914,"RA_OF_ASC_NODE":67.3748,"ARG_OF_PERICENTER":110.3089,"MEAN_ANOMALY":249.9639,"EPHEMERIS_TYPE":0,"CLASSIFICATION_TYPE":"U","NORAD_CAT_ID":54023,"ELEMENT_SET_NO":999,"REV_AT_EPOCH":18081,"BSTAR":6.5137371e-5,"MEAN_MOTION_DOT":1.73e-6,"MEAN_MOTION_DDOT":0},{"OBJECT_NAME":"ASO-S","OBJECT_ID":"2022-129A","EPOCH":"2026-03-15T06:16:48.293184","MEAN_MOTION":14.52015659,"ECCENTRICITY":0.00148467,"INCLINATION":98.2779,"RA_OF_ASC_NODE":80.6805,"ARG_OF_PERICENTER":26.3025,"MEAN_ANOMALY":333.8921,"EPHEMERIS_TYPE":0,"CLASSIFICATION_TYPE":"U","NORAD_CAT_ID":54029,"ELEMENT_SET_NO":999,"REV_AT_EPOCH":18179,"BSTAR":6.7656756e-5,"MEAN_MOTION_DOT":2.29e-6,"MEAN_MOTION_DDOT":0},{"OBJECT_NAME":"HJ-2E","OBJECT_ID":"2022-132A","EPOCH":"2026-03-15T07:29:28.844160","MEAN_MOTION":15.20955163,"ECCENTRICITY":0.00200802,"INCLINATION":97.3828,"RA_OF_ASC_NODE":80.4674,"ARG_OF_PERICENTER":343.1953,"MEAN_ANOMALY":16.8615,"EPHEMERIS_TYPE":0,"CLASSIFICATION_TYPE":"U","NORAD_CAT_ID":54035,"ELEMENT_SET_NO":999,"REV_AT_EPOCH":19014,"BSTAR":0.00046991316,"MEAN_MOTION_DOT":0.00010399,"MEAN_MOTION_DDOT":0},{"OBJECT_NAME":"COSMOS 2561","OBJECT_ID":"2022-137A","EPOCH":"2026-03-12T23:57:04.976064","MEAN_MOTION":15.49169367,"ECCENTRICITY":0.0010366,"INCLINATION":96.9318,"RA_OF_ASC_NODE":134.694,"ARG_OF_PERICENTER":29.4823,"MEAN_ANOMALY":330.7011,"EPHEMERIS_TYPE":0,"CLASSIFICATION_TYPE":"U","NORAD_CAT_ID":54109,"ELEMENT_SET_NO":999,"REV_AT_EPOCH":19144,"BSTAR":0.00028048,"MEAN_MOTION_DOT":0.0001522,"MEAN_MOTION_DDOT":0},{"OBJECT_NAME":"GONETS-M 23","OBJECT_ID":"2022-139A","EPOCH":"2026-03-15T07:44:57.763392","MEAN_MOTION":12.42886703,"ECCENTRICITY":0.00226925,"INCLINATION":82.5056,"RA_OF_ASC_NODE":46.6145,"ARG_OF_PERICENTER":66.9983,"MEAN_ANOMALY":293.3487,"EPHEMERIS_TYPE":0,"CLASSIFICATION_TYPE":"U","NORAD_CAT_ID":54150,"ELEMENT_SET_NO":999,"REV_AT_EPOCH":15398,"BSTAR":0.00015882108,"MEAN_MOTION_DOT":3.2e-7,"MEAN_MOTION_DDOT":0},{"OBJECT_NAME":"GONETS-M 24","OBJECT_ID":"2022-139B","EPOCH":"2026-03-15T07:06:16.706016","MEAN_MOTION":12.42887346,"ECCENTRICITY":0.00179343,"INCLINATION":82.4975,"RA_OF_ASC_NODE":45.7552,"ARG_OF_PERICENTER":76.9654,"MEAN_ANOMALY":283.3426,"EPHEMERIS_TYPE":0,"CLASSIFICATION_TYPE":"U","NORAD_CAT_ID":54151,"ELEMENT_SET_NO":999,"REV_AT_EPOCH":15398,"BSTAR":0.00023685992,"MEAN_MOTION_DOT":4.3e-7,"MEAN_MOTION_DDOT":0},{"OBJECT_NAME":"GONETS-M 25","OBJECT_ID":"2022-139C","EPOCH":"2026-03-15T06:46:36.054336","MEAN_MOTION":12.42886647,"ECCENTRICITY":0.00218511,"INCLINATION":82.5039,"RA_OF_ASC_NODE":46.3995,"ARG_OF_PERICENTER":75.5017,"MEAN_ANOMALY":284.8485,"EPHEMERIS_TYPE":0,"CLASSIFICATION_TYPE":"U","NORAD_CAT_ID":54152,"ELEMENT_SET_NO":999,"REV_AT_EPOCH":15398,"BSTAR":0.00025123507,"MEAN_MOTION_DOT":4.5e-7,"MEAN_MOTION_DDOT":0},{"OBJECT_NAME":"SKIF-D","OBJECT_ID":"2022-139D","EPOCH":"2026-03-13T07:47:36.976992","MEAN_MOTION":5.0042774,"ECCENTRICITY":0.00074142,"INCLINATION":89.9557,"RA_OF_ASC_NODE":96.702,"ARG_OF_PERICENTER":234.224,"MEAN_ANOMALY":125.7776,"EPHEMERIS_TYPE":0,"CLASSIFICATION_TYPE":"U","NORAD_CAT_ID":54153,"ELEMENT_SET_NO":999,"REV_AT_EPOCH":5931,"BSTAR":0,"MEAN_MOTION_DOT":5.0e-7,"MEAN_MOTION_DDOT":0},{"OBJECT_NAME":"MATS","OBJECT_ID":"2022-147A","EPOCH":"2026-03-15T05:44:07.587744","MEAN_MOTION":15.047076,"ECCENTRICITY":0.00133851,"INCLINATION":97.6824,"RA_OF_ASC_NODE":76.2857,"ARG_OF_PERICENTER":151.8274,"MEAN_ANOMALY":208.3679,"EPHEMERIS_TYPE":0,"CLASSIFICATION_TYPE":"U","NORAD_CAT_ID":54227,"ELEMENT_SET_NO":999,"REV_AT_EPOCH":18363,"BSTAR":0.00024688359,"MEAN_MOTION_DOT":3.42e-5,"MEAN_MOTION_DDOT":0},{"OBJECT_NAME":"JILIN-1 GAOFEN 03D54","OBJECT_ID":"2022-155D","EPOCH":"2026-03-15T06:40:41.340000","MEAN_MOTION":15.69409719,"ECCENTRICITY":0.0003149,"INCLINATION":97.6017,"RA_OF_ASC_NODE":217.5314,"ARG_OF_PERICENTER":297.5681,"MEAN_ANOMALY":62.526,"EPHEMERIS_TYPE":0,"CLASSIFICATION_TYPE":"U","NORAD_CAT_ID":54254,"ELEMENT_SET_NO":999,"REV_AT_EPOCH":18546,"BSTAR":0.00081844809,"MEAN_MOTION_DOT":0.00096689,"MEAN_MOTION_DDOT":0},{"OBJECT_NAME":"EOS-6 (OCEANSAT-3)","OBJECT_ID":"2022-158A","EPOCH":"2026-03-15T06:11:53.687328","MEAN_MOTION":14.47010662,"ECCENTRICITY":4.905e-5,"INCLINATION":98.3482,"RA_OF_ASC_NODE":173.7296,"ARG_OF_PERICENTER":167.6022,"MEAN_ANOMALY":192.5183,"EPHEMERIS_TYPE":0,"CLASSIFICATION_TYPE":"U","NORAD_CAT_ID":54361,"ELEMENT_SET_NO":999,"REV_AT_EPOCH":17425,"BSTAR":0.00011349603,"MEAN_MOTION_DOT":3.69e-6,"MEAN_MOTION_DDOT":0},{"OBJECT_NAME":"DONGPO 09","OBJECT_ID":"2022-167D","EPOCH":"2026-03-15T07:04:11.345664","MEAN_MOTION":15.34128408,"ECCENTRICITY":0.00036839,"INCLINATION":97.6804,"RA_OF_ASC_NODE":241.3059,"ARG_OF_PERICENTER":102.2172,"MEAN_ANOMALY":257.9482,"EPHEMERIS_TYPE":0,"CLASSIFICATION_TYPE":"U","NORAD_CAT_ID":54685,"ELEMENT_SET_NO":999,"REV_AT_EPOCH":18104,"BSTAR":0.00045060464,"MEAN_MOTION_DOT":0.00014814,"MEAN_MOTION_DDOT":0},{"OBJECT_NAME":"DONGPO 08","OBJECT_ID":"2022-167E","EPOCH":"2026-03-15T07:32:18.170016","MEAN_MOTION":15.31700821,"ECCENTRICITY":0.00094707,"INCLINATION":97.6761,"RA_OF_ASC_NODE":238.9338,"ARG_OF_PERICENTER":136.6505,"MEAN_ANOMALY":223.5482,"EPHEMERIS_TYPE":0,"CLASSIFICATION_TYPE":"U","NORAD_CAT_ID":54686,"ELEMENT_SET_NO":999,"REV_AT_EPOCH":18094,"BSTAR":0.00045191893,"MEAN_MOTION_DOT":0.00013779,"MEAN_MOTION_DDOT":0},{"OBJECT_NAME":"2022-167F","OBJECT_ID":"2022-167F","EPOCH":"2026-03-15T07:09:34.377984","MEAN_MOTION":15.69446357,"ECCENTRICITY":0.00017477,"INCLINATION":97.6212,"RA_OF_ASC_NODE":252.517,"ARG_OF_PERICENTER":1.6752,"MEAN_ANOMALY":358.4514,"EPHEMERIS_TYPE":0,"CLASSIFICATION_TYPE":"U","NORAD_CAT_ID":54687,"ELEMENT_SET_NO":999,"REV_AT_EPOCH":18201,"BSTAR":0.00073545713,"MEAN_MOTION_DOT":0.00086888,"MEAN_MOTION_DDOT":0},{"OBJECT_NAME":"DONGPO 10","OBJECT_ID":"2022-167H","EPOCH":"2026-03-15T07:15:39.057696","MEAN_MOTION":15.32436778,"ECCENTRICITY":0.00062103,"INCLINATION":97.6847,"RA_OF_ASC_NODE":240.6543,"ARG_OF_PERICENTER":91.4638,"MEAN_ANOMALY":268.7314,"EPHEMERIS_TYPE":0,"CLASSIFICATION_TYPE":"U","NORAD_CAT_ID":54689,"ELEMENT_SET_NO":999,"REV_AT_EPOCH":18097,"BSTAR":0.00043902604,"MEAN_MOTION_DOT":0.00013685,"MEAN_MOTION_DDOT":0}]
